[{"OBJECT_NAME":"STARLINK-5429","OBJECT_ID":"2022-175AV","EPOCH":"2026-03-09T22:39:36.369216","MEAN_MOTION":15.08826598,"ECCENTRICITY":0.00013355,"INCLINATION":53.2183,"RA_OF_ASC_NODE":42.5361,"ARG_OF_PERICENTER":74.5654,"MEAN_ANOMALY":285.5485,"EPHEMERIS_TYPE":0,"CLASSIFICATION_TYPE":"U","NORAD_CAT_ID":54801,"ELEMENT_SET_NO":999,"REV_AT_EPOCH":17996,"BSTAR":9.6617358e-5,"MEAN_MOTION_DOT":1.25e-5,"MEAN_MOTION_DDOT":0},{"OBJECT_NAME":"SL-6 R\/B(2)","OBJECT_ID":"1990-055D","EPOCH":"2026-03-09T21:41:59.551872","MEAN_MOTION":15.03595553,"ECCENTRICITY":0.00247741,"INCLINATION":62.7825,"RA_OF_ASC_NODE":253.121,"ARG_OF_PERICENTER":347.1508,"MEAN_ANOMALY":12.8957,"EPHEMERIS_TYPE":0,"CLASSIFICATION_TYPE":"U","NORAD_CAT_ID":20666,"ELEMENT_SET_NO":999,"REV_AT_EPOCH":93822,"BSTAR":0.00020900577,"MEAN_MOTION_DOT":2.688e-5,"MEAN_MOTION_DDOT":0}]
